[
  {
    "COMMENT": "GENERATED VIA SPACETRACK.ORG API",
    "ORIGINATOR": "18 SPCS",
    "NORAD_CAT_ID": "25260",
    "OBJECT_NAME": "SPOT 4",
    "OBJECT_TYPE": "PAYLOAD",
    "CLASSIFICATION_TYPE": "U",
    "INTLDES": "98017A",
    "EPOCH": "2023-05-10 18:13:20",
    "EPOCH_MICROSECONDS": "759520",
    "MEAN_MOTION": "14.54164584",
    "ECCENTRICITY": "0.0014102",
    "INCLINATION": "98.2616",
    "RA_OF_ASC_NODE": "224.211",
    "ARG_OF_PERICENTER": "121.9794",
    "MEAN_ANOMALY": "238.2775",
    "EPHEMERIS_TYPE": "0",
    "ELEMENT_SET_NO": "999",
    "REV_AT_EPOCH": "31471",
    "BSTAR": "0.00019414",
    "MEAN_MOTION_DOT": "0.00000777",
    "MEAN_MOTION_DDOT": "0",
    "FILE": "3904777",
    "TLE_LINE0": "0 SPOT 4",
    "TLE_LINE1": "1 25260U 98017A   23130.75926805  .00000777  00000-0  19414-3 0  9994",
    "TLE_LINE2": "2 25260  98.2616 224.2110 0014102 121.9794 238.2775 14.54164584314714",
    "OBJECT_ID": "1998-017A",
    "OBJECT_NUMBER": "25260",
    "SEMIMAJOR_AXIS": "7090.216",
    "PERIOD": "99.026",
    "APOGEE": "722.080",
    "PERIGEE": "702.082",
    "DECAYED": "0"
  },
  {
    "COMMENT": "GENERATED VIA SPACETRACK.ORG API",
    "ORIGINATOR": "18 SPCS",
    "NORAD_CAT_ID": "25260",
    "OBJECT_NAME": "SPOT 4",
    "OBJECT_TYPE": "PAYLOAD",
    "CLASSIFICATION_TYPE": "U",
    "INTLDES": "98017A",
    "EPOCH": "2023-05-10 18:13:20",
    "EPOCH_MICROSECONDS": "759520",
    "MEAN_MOTION": "14.54164584",
    "ECCENTRICITY": "0.0014102",
    "INCLINATION": "98.2616",
    "RA_OF_ASC_NODE": "224.211",
    "ARG_OF_PERICENTER": "121.9794",
    "MEAN_ANOMALY": "238.2775",
    "EPHEMERIS_TYPE": "0",
    "ELEMENT_SET_NO": "999",
    "REV_AT_EPOCH": "31447",
    "BSTAR": "0.00019414",
    "MEAN_MOTION_DOT": "0.00000777",
    "MEAN_MOTION_DDOT": "0",
    "FILE": "3904830",
    "TLE_LINE0": "0 SPOT 4",
    "TLE_LINE1": "1 25260U 98017A   23130.75926805  .00000777  00000-0  19414-3 0  9994",
    "TLE_LINE2": "2 25260  98.2616 224.2110 0014102 121.9794 238.2775 14.54164584314477",
    "OBJECT_ID": "1998-017A",
    "OBJECT_NUMBER": "25260",
    "SEMIMAJOR_AXIS": "7090.216",
    "PERIOD": "99.026",
    "APOGEE": "722.080",
    "PERIGEE": "702.082",
    "DECAYED": "0"
  },
  {
    "COMMENT": "GENERATED VIA SPACETRACK.ORG API",
    "ORIGINATOR": "18 SPCS",
    "NORAD_CAT_ID": "25260",
    "OBJECT_NAME": "SPOT 4",
    "OBJECT_TYPE": "PAYLOAD",
    "CLASSIFICATION_TYPE": "U",
    "INTLDES": "98017A",
    "EPOCH": "2023-05-10 23:10:35",
    "EPOCH_MICROSECONDS": "944320",
    "MEAN_MOTION": "14.54164887",
    "ECCENTRICITY": "0.0014106",
    "INCLINATION": "98.2616",
    "RA_OF_ASC_NODE": "224.4148",
    "ARG_OF_PERICENTER": "121.4073",
    "MEAN_ANOMALY": "238.8506",
    "EPHEMERIS_TYPE": "0",
    "ELEMENT_SET_NO": "999",
    "REV_AT_EPOCH": "31474",
    "BSTAR": "0.00019377",
    "MEAN_MOTION_DOT": "0.00000775",
    "MEAN_MOTION_DDOT": "0",
    "FILE": "3904962",
    "TLE_LINE0": "0 SPOT 4",
    "TLE_LINE1": "1 25260U 98017A   23130.96569380  .00000775  00000-0  19377-3 0  9994",
    "TLE_LINE2": "2 25260  98.2616 224.4148 0014106 121.4073 238.8506 14.54164887314743",
    "OBJECT_ID": "1998-017A",
    "OBJECT_NUMBER": "25260",
    "SEMIMAJOR_AXIS": "7090.215",
    "PERIOD": "99.026",
    "APOGEE": "722.081",
    "PERIGEE": "702.079",
    "DECAYED": "0"
  },
  {
    "COMMENT": "GENERATED VIA SPACETRACK.ORG API",
    "ORIGINATOR": "18 SPCS",
    "NORAD_CAT_ID": "25260",
    "OBJECT_NAME": "SPOT 4",
    "OBJECT_TYPE": "PAYLOAD",
    "CLASSIFICATION_TYPE": "U",
    "INTLDES": "98017A",
    "EPOCH": "2023-05-11 05:46:56",
    "EPOCH_MICROSECONDS": "230176",
    "MEAN_MOTION": "14.54164914",
    "ECCENTRICITY": "0.0014116",
    "INCLINATION": "98.2616",
    "RA_OF_ASC_NODE": "224.6865",
    "ARG_OF_PERICENTER": "120.6092",
    "MEAN_ANOMALY": "239.6499",
    "EPHEMERIS_TYPE": "0",
    "ELEMENT_SET_NO": "999",
    "REV_AT_EPOCH": "31454",
    "BSTAR": "0.00018121",
    "MEAN_MOTION_DOT": "0.00000722",
    "MEAN_MOTION_DDOT": "0",
    "FILE": "3905210",
    "TLE_LINE0": "0 SPOT 4",
    "TLE_LINE1": "1 25260U 98017A   23131.24092859  .00000722  00000-0  18121-3 0  9996",
    "TLE_LINE2": "2 25260  98.2616 224.6865 0014116 120.6092 239.6499 14.54164914314543",
    "OBJECT_ID": "1998-017A",
    "OBJECT_NUMBER": "25260",
    "SEMIMAJOR_AXIS": "7090.215",
    "PERIOD": "99.026",
    "APOGEE": "722.088",
    "PERIGEE": "702.071",
    "DECAYED": "0"
  },
  {
    "COMMENT": "GENERATED VIA SPACETRACK.ORG API",
    "ORIGINATOR": "18 SPCS",
    "NORAD_CAT_ID": "25260",
    "OBJECT_NAME": "SPOT 4",
    "OBJECT_TYPE": "PAYLOAD",
    "CLASSIFICATION_TYPE": "U",
    "INTLDES": "98017A",
    "EPOCH": "2023-05-11 05:46:56",
    "EPOCH_MICROSECONDS": "230176",
    "MEAN_MOTION": "14.54164914",
    "ECCENTRICITY": "0.0014116",
    "INCLINATION": "98.2616",
    "RA_OF_ASC_NODE": "224.6865",
    "ARG_OF_PERICENTER": "120.6092",
    "MEAN_ANOMALY": "239.6499",
    "EPHEMERIS_TYPE": "0",
    "ELEMENT_SET_NO": "999",
    "REV_AT_EPOCH": "31478",
    "BSTAR": "0.00018121",
    "MEAN_MOTION_DOT": "0.00000722",
    "MEAN_MOTION_DDOT": "0",
    "FILE": "3905242",
    "TLE_LINE0": "0 SPOT 4",
    "TLE_LINE1": "1 25260U 98017A   23131.24092859  .00000722  00000-0  18121-3 0  9996",
    "TLE_LINE2": "2 25260  98.2616 224.6865 0014116 120.6092 239.6499 14.54164914314789",
    "OBJECT_ID": "1998-017A",
    "OBJECT_NUMBER": "25260",
    "SEMIMAJOR_AXIS": "7090.215",
    "PERIOD": "99.026",
    "APOGEE": "722.088",
    "PERIGEE": "702.071",
    "DECAYED": "0"
  },
  {
    "COMMENT": "GENERATED VIA SPACETRACK.ORG API",
    "ORIGINATOR": "18 SPCS",
    "NORAD_CAT_ID": "25260",
    "OBJECT_NAME": "SPOT 4",
    "OBJECT_TYPE": "PAYLOAD",
    "CLASSIFICATION_TYPE": "U",
    "INTLDES": "98017A",
    "EPOCH": "2023-05-11 17:20:31",
    "EPOCH_MICROSECONDS": "642944",
    "MEAN_MOTION": "14.54165688",
    "ECCENTRICITY": "0.0014133",
    "INCLINATION": "98.2616",
    "RA_OF_ASC_NODE": "225.162",
    "ARG_OF_PERICENTER": "119.239",
    "MEAN_ANOMALY": "241.0221",
    "EPHEMERIS_TYPE": "0",
    "ELEMENT_SET_NO": "999",
    "REV_AT_EPOCH": "31485",
    "BSTAR": "0.00018101",
    "MEAN_MOTION_DOT": "0.00000721",
    "MEAN_MOTION_DDOT": "0",
    "FILE": "3905507",
    "TLE_LINE0": "0 SPOT 4",
    "TLE_LINE1": "1 25260U 98017A   23131.72258846  .00000721  00000-0  18101-3 0  9996",
    "TLE_LINE2": "2 25260  98.2616 225.1620 0014133 119.2390 241.0221 14.54165688314855",
    "OBJECT_ID": "1998-017A",
    "OBJECT_NUMBER": "25260",
    "SEMIMAJOR_AXIS": "7090.212",
    "PERIOD": "99.026",
    "APOGEE": "722.098",
    "PERIGEE": "702.057",
    "DECAYED": "0"
  },
  {
    "COMMENT": "GENERATED VIA SPACETRACK.ORG API",
    "ORIGINATOR": "18 SPCS",
    "NORAD_CAT_ID": "25260",
    "OBJECT_NAME": "SPOT 4",
    "OBJECT_TYPE": "PAYLOAD",
    "CLASSIFICATION_TYPE": "U",
    "INTLDES": "98017A",
    "EPOCH": "2023-05-11 17:20:31",
    "EPOCH_MICROSECONDS": "642944",
    "MEAN_MOTION": "14.54165688",
    "ECCENTRICITY": "0.0014133",
    "INCLINATION": "98.2616",
    "RA_OF_ASC_NODE": "225.162",
    "ARG_OF_PERICENTER": "119.239",
    "MEAN_ANOMALY": "241.0221",
    "EPHEMERIS_TYPE": "0",
    "ELEMENT_SET_NO": "999",
    "REV_AT_EPOCH": "31461",
    "BSTAR": "0.00018101",
    "MEAN_MOTION_DOT": "0.00000721",
    "MEAN_MOTION_DDOT": "0",
    "FILE": "3905576",
    "TLE_LINE0": "0 SPOT 4",
    "TLE_LINE1": "1 25260U 98017A   23131.72258846  .00000721  00000-0  18101-3 0  9996",
    "TLE_LINE2": "2 25260  98.2616 225.1620 0014133 119.2390 241.0221 14.54165688314619",
    "OBJECT_ID": "1998-017A",
    "OBJECT_NUMBER": "25260",
    "SEMIMAJOR_AXIS": "7090.212",
    "PERIOD": "99.026",
    "APOGEE": "722.098",
    "PERIGEE": "702.057",
    "DECAYED": "0"
  },
  {
    "COMMENT": "GENERATED VIA SPACETRACK.ORG API",
    "ORIGINATOR": "18 SPCS",
    "NORAD_CAT_ID": "25260",
    "OBJECT_NAME": "SPOT 4",
    "OBJECT_TYPE": "PAYLOAD",
    "CLASSIFICATION_TYPE": "U",
    "INTLDES": "98017A",
    "EPOCH": "2023-05-11 23:56:51",
    "EPOCH_MICROSECONDS": "865728",
    "MEAN_MOTION": "14.54166086",
    "ECCENTRICITY": "0.0014145",
    "INCLINATION": "98.2616",
    "RA_OF_ASC_NODE": "225.4338",
    "ARG_OF_PERICENTER": "118.46",
    "MEAN_ANOMALY": "241.8023",
    "EPHEMERIS_TYPE": "0",
    "ELEMENT_SET_NO": "999",
    "REV_AT_EPOCH": "31489",
    "BSTAR": "0.00017958",
    "MEAN_MOTION_DOT": "0.00000715",
    "MEAN_MOTION_DDOT": "0",
    "FILE": "3905857",
    "TLE_LINE0": "0 SPOT 4",
    "TLE_LINE1": "1 25260U 98017A   23131.99782252  .00000715  00000-0  17958-3 0  9990",
    "TLE_LINE2": "2 25260  98.2616 225.4338 0014145 118.4600 241.8023 14.54166086314897",
    "OBJECT_ID": "1998-017A",
    "OBJECT_NUMBER": "25260",
    "SEMIMAJOR_AXIS": "7090.211",
    "PERIOD": "99.026",
    "APOGEE": "722.105",
    "PERIGEE": "702.047",
    "DECAYED": "0"
  },
  {
    "COMMENT": "GENERATED VIA SPACETRACK.ORG API",
    "ORIGINATOR": "18 SPCS",
    "NORAD_CAT_ID": "25260",
    "OBJECT_NAME": "SPOT 4",
    "OBJECT_TYPE": "PAYLOAD",
    "CLASSIFICATION_TYPE": "U",
    "INTLDES": "98017A",
    "EPOCH": "2023-05-12 06:33:12",
    "EPOCH_MICROSECONDS": "93696",
    "MEAN_MOTION": "14.54166603",
    "ECCENTRICITY": "0.0014149",
    "INCLINATION": "98.2616",
    "RA_OF_ASC_NODE": "225.7055",
    "ARG_OF_PERICENTER": "117.6742",
    "MEAN_ANOMALY": "242.5892",
    "EPHEMERIS_TYPE": "0",
    "ELEMENT_SET_NO": "999",
    "REV_AT_EPOCH": "31469",
    "BSTAR": "0.00018403",
    "MEAN_MOTION_DOT": "0.00000734",
    "MEAN_MOTION_DDOT": "0",
    "FILE": "3905921",
    "TLE_LINE0": "0 SPOT 4",
    "TLE_LINE1": "1 25260U 98017A   23132.27305664  .00000734  00000-0  18403-3 0  9997",
    "TLE_LINE2": "2 25260  98.2616 225.7055 0014149 117.6742 242.5892 14.54166603314693",
    "OBJECT_ID": "1998-017A",
    "OBJECT_NUMBER": "25260",
    "SEMIMAJOR_AXIS": "7090.209",
    "PERIOD": "99.026",
    "APOGEE": "722.106",
    "PERIGEE": "702.042",
    "DECAYED": "0"
  }
]